{
  "links" : {
    "next" : "https://api.nasa.gov/neo/rest/v1/feed?start_date=2011-07-09&end_date=2011-07-09&detailed=true&api_key=t0TVs3DtDT2H8Oy2Zy8m2eVrNsAVKAexjcZXUckd",
    "prev" : "https://api.nasa.gov/neo/rest/v1/feed?start_date=2011-07-07&end_date=2011-07-07&detailed=true&api_key=t0TVs3DtDT2H8Oy2Zy8m2eVrNsAVKAexjcZXUckd",
    "self" : "https://api.nasa.gov/neo/rest/v1/feed?start_date=2011-07-08&end_date=2011-07-08&detailed=true&api_key=t0TVs3DtDT2H8Oy2Zy8m2eVrNsAVKAexjcZXUckd"
  },
  "element_count" : 6,
  "near_earth_objects" : {
    "2011-07-08" : [ {
      "links" : {
        "self" : "https://api.nasa.gov/neo/rest/v1/neo/3574101?api_key=t0TVs3DtDT2H8Oy2Zy8m2eVrNsAVKAexjcZXUckd"
      },
      "neo_reference_id" : "3574101",
      "name" : "(2011 OS15)",
      "nasa_jpl_url" : "http://ssd.jpl.nasa.gov/sbdb.cgi?sstr=3574101",
      "absolute_magnitude_h" : 24.2,
      "estimated_diameter" : {
        "kilometers" : {
          "estimated_diameter_min" : 0.0384197891,
          "estimated_diameter_max" : 0.0859092601
        },
        "meters" : {
          "estimated_diameter_min" : 38.4197891064,
          "estimated_diameter_max" : 85.9092601232
        },
        "miles" : {
          "estimated_diameter_min" : 0.0238729428,
          "estimated_diameter_max" : 0.0533815229
        },
        "feet" : {
          "estimated_diameter_min" : 126.0491808919,
          "estimated_diameter_max" : 281.8545369825
        }
      },
      "is_potentially_hazardous_asteroid" : false,
      "close_approach_data" : [ {
        "close_approach_date" : "2011-07-08",
        "epoch_date_close_approach" : 1310108400000,
        "relative_velocity" : {
          "kilometers_per_second" : "4.099021824",
          "kilometers_per_hour" : "14756.4785662267",
          "miles_per_hour" : "9169.1019179979"
        },
        "miss_distance" : {
          "astronomical" : "0.1600718507",
          "lunar" : "62.2679481506",
          "kilometers" : "23946408",
          "miles" : "14879608"
        },
        "orbiting_body" : "Earth"
      } ],
      "orbital_data" : {
        "orbit_id" : "6",
        "orbit_determination_date" : "2017-04-06 08:53:07",
        "orbit_uncertainty" : "8",
        "minimum_orbit_intersection" : ".141533",
        "jupiter_tisserand_invariant" : "4.075",
        "epoch_osculation" : "2455772.5",
        "eccentricity" : ".3348526603083621",
        "semi_major_axis" : "1.740517125079629",
        "inclination" : "5.382474634237361",
        "ascending_node_longitude" : "111.9199599564417",
        "orbital_period" : "838.7178344241253",
        "perihelion_distance" : "1.157700335434453",
        "perihelion_argument" : "171.6723414454575",
        "aphelion_distance" : "2.323333914724805",
        "perihelion_time" : "2455744.350936566314",
        "mean_anomaly" : "12.08232664217146",
        "mean_motion" : ".4292265947190461",
        "equinox" : "J2000"
      }
    }, {
      "links" : {
        "self" : "https://api.nasa.gov/neo/rest/v1/neo/3532366?api_key=t0TVs3DtDT2H8Oy2Zy8m2eVrNsAVKAexjcZXUckd"
      },
      "neo_reference_id" : "3532366",
      "name" : "(2010 MJ1)",
      "nasa_jpl_url" : "http://ssd.jpl.nasa.gov/sbdb.cgi?sstr=3532366",
      "absolute_magnitude_h" : 23.6,
      "estimated_diameter" : {
        "kilometers" : {
          "estimated_diameter_min" : 0.0506471459,
          "estimated_diameter_max" : 0.1132504611
        },
        "meters" : {
          "estimated_diameter_min" : 50.6471458835,
          "estimated_diameter_max" : 113.2504610618
        },
        "miles" : {
          "estimated_diameter_min" : 0.0314706677,
          "estimated_diameter_max" : 0.0703705522
        },
        "feet" : {
          "estimated_diameter_min" : 166.1651821003,
          "estimated_diameter_max" : 371.5566426699
        }
      },
      "is_potentially_hazardous_asteroid" : false,
      "close_approach_data" : [ {
        "close_approach_date" : "2011-07-08",
        "epoch_date_close_approach" : 1310108400000,
        "relative_velocity" : {
          "kilometers_per_second" : "9.8163498665",
          "kilometers_per_hour" : "35338.8595195336",
          "miles_per_hour" : "21958.1930164568"
        },
        "miss_distance" : {
          "astronomical" : "0.1185354819",
          "lunar" : "46.1103019714",
          "kilometers" : "17732656",
          "miles" : "11018561"
        },
        "orbiting_body" : "Earth"
      } ],
      "orbital_data" : {
        "orbit_id" : "9",
        "orbit_determination_date" : "2017-04-06 08:57:13",
        "orbit_uncertainty" : "6",
        "minimum_orbit_intersection" : ".095708",
        "jupiter_tisserand_invariant" : "6.065",
        "epoch_osculation" : "2458000.5",
        "eccentricity" : ".1322913666879912",
        "semi_major_axis" : ".9925687472519312",
        "inclination" : "18.2613376050451",
        "ascending_node_longitude" : "98.25575784832722",
        "orbital_period" : "361.1929972657614",
        "perihelion_distance" : ".8612604711461859",
        "perihelion_argument" : "340.0903210050301",
        "aphelion_distance" : "1.123877023357676",
        "perihelion_time" : "2458060.329731117970",
        "mean_anomaly" : "300.3678826402574",
        "mean_motion" : ".9966970642432371",
        "equinox" : "J2000"
      }
    }, {
      "links" : {
        "self" : "https://api.nasa.gov/neo/rest/v1/neo/3576729?api_key=t0TVs3DtDT2H8Oy2Zy8m2eVrNsAVKAexjcZXUckd"
      },
      "neo_reference_id" : "3576729",
      "name" : "(2011 OB57)",
      "nasa_jpl_url" : "http://ssd.jpl.nasa.gov/sbdb.cgi?sstr=3576729",
      "absolute_magnitude_h" : 26.0,
      "estimated_diameter" : {
        "kilometers" : {
          "estimated_diameter_min" : 0.0167708462,
          "estimated_diameter_max" : 0.0375007522
        },
        "meters" : {
          "estimated_diameter_min" : 16.7708462163,
          "estimated_diameter_max" : 37.5007521798
        },
        "miles" : {
          "estimated_diameter_min" : 0.0104209175,
          "estimated_diameter_max" : 0.0233018799
        },
        "feet" : {
          "estimated_diameter_min" : 55.0224631002,
          "estimated_diameter_max" : 123.0339677816
        }
      },
      "is_potentially_hazardous_asteroid" : false,
      "close_approach_data" : [ {
        "close_approach_date" : "2011-07-08",
        "epoch_date_close_approach" : 1310108400000,
        "relative_velocity" : {
          "kilometers_per_second" : "5.5117538886",
          "kilometers_per_hour" : "19842.3139989606",
          "miles_per_hour" : "12329.2422734097"
        },
        "miss_distance" : {
          "astronomical" : "0.0741216733",
          "lunar" : "28.8333320618",
          "kilometers" : "11088445",
          "miles" : "6890040.5"
        },
        "orbiting_body" : "Earth"
      } ],
      "orbital_data" : {
        "orbit_id" : "5",
        "orbit_determination_date" : "2017-04-06 08:53:03",
        "orbit_uncertainty" : "5",
        "minimum_orbit_intersection" : ".0240657",
        "jupiter_tisserand_invariant" : "6.295",
        "epoch_osculation" : "2458000.5",
        "eccentricity" : ".2425473895941074",
        "semi_major_axis" : ".9514640210071156",
        "inclination" : "4.910556156897652",
        "ascending_node_longitude" : "296.2408968293704",
        "orbital_period" : "338.9900745099534",
        "perihelion_distance" : ".7206889064191268",
        "perihelion_argument" : "223.6880501627711",
        "aphelion_distance" : "1.182239135595104",
        "perihelion_time" : "2458025.050198918822",
        "mean_anomaly" : "333.9282289502066",
        "mean_motion" : "1.061977996023685",
        "equinox" : "J2000"
      }
    } ]
  }
}